<?xml version="1.0" encoding="UTF-8"?>
<gpx version="1.1" creator="Paldang summer bike plan" xmlns="http://www.topografix.com/GPX/1/1" xmlns:xsi="http://www.w3.org/2001/XMLSchema-instance" xsi:schemaLocation="http://www.topografix.com/GPX/1/1 http://www.topografix.com/GPX/1/1/gpx.xsd">
  <metadata><name>팔당역 ↔ 북한강철교 (왕복)</name><desc>남한강자전거길 왕복 약 21.2km · 2026-08-29 팔당 라이딩</desc></metadata>
  <wpt lat="37.547500" lon="127.243790"><name>팔당역 대여소</name><desc>08:35 출발 · 바이크토탈 팔당점</desc><sym>Flag</sym></wpt>
  <wpt lat="37.532238" lon="127.270395"><name>팔당댐 전망</name><desc>사진 5분 · 옛 철로 흔적 주의(젖으면 미끄러움)</desc><sym>Flag</sym></wpt>
  <wpt lat="37.529105" lon="127.279009"><name>봉안터널</name><desc>08:54 · 길이 260m · 오늘 유일한 지붕</desc><sym>Flag</sym></wpt>
  <wpt lat="37.523746" lon="127.296740"><name>능내역 — 2차 판단</name><desc>09:04 · 편의점·화장실·처마 / 물 보급 / A냐 B냐를 여기서 결정</desc><sym>Flag</sym></wpt>
  <wpt lat="37.551240" lon="127.316240"><name>북한강철교 — 반환점</name><desc>09:25 · 사진 15분 · 젖은 상판 주의, 세우고 촬영</desc><sym>Flag</sym></wpt>
  <wpt lat="37.547500" lon="127.243790"><name>팔당역 반납 (도착)</name><desc>10:50 · 왕복 약 21.2km 종료</desc><sym>Flag</sym></wpt>
  <trk><name>팔당역 ↔ 북한강철교 (왕복)</name><type>cycling</type><trkseg>
    <trkpt lat="37.547500" lon="127.243790"/>
    <trkpt lat="37.547627" lon="127.243460"/>
    <trkpt lat="37.547753" lon="127.243130"/>
    <trkpt lat="37.547880" lon="127.242800"/>
    <trkpt lat="37.547670" lon="127.242390"/>
    <trkpt lat="37.547455" lon="127.242290"/>
    <trkpt lat="37.547240" lon="127.242190"/>
    <trkpt lat="37.547053" lon="127.242393"/>
    <trkpt lat="37.546867" lon="127.242597"/>
    <trkpt lat="37.546680" lon="127.242800"/>
    <trkpt lat="37.546560" lon="127.243043"/>
    <trkpt lat="37.546440" lon="127.243287"/>
    <trkpt lat="37.546320" lon="127.243530"/>
    <trkpt lat="37.546167" lon="127.243820"/>
    <trkpt lat="37.546013" lon="127.244110"/>
    <trkpt lat="37.545860" lon="127.244400"/>
    <trkpt lat="37.545805" lon="127.244677"/>
    <trkpt lat="37.545750" lon="127.244955"/>
    <trkpt lat="37.545695" lon="127.245233"/>
    <trkpt lat="37.545640" lon="127.245510"/>
    <trkpt lat="37.545480" lon="127.245825"/>
    <trkpt lat="37.545320" lon="127.246140"/>
    <trkpt lat="37.545230" lon="127.246470"/>
    <trkpt lat="37.545080" lon="127.246350"/>
    <trkpt lat="37.545050" lon="127.245870"/>
    <trkpt lat="37.544945" lon="127.245565"/>
    <trkpt lat="37.544840" lon="127.245260"/>
    <trkpt lat="37.544703" lon="127.245530"/>
    <trkpt lat="37.544567" lon="127.245800"/>
    <trkpt lat="37.544430" lon="127.246070"/>
    <trkpt lat="37.544348" lon="127.246351"/>
    <trkpt lat="37.544267" lon="127.246632"/>
    <trkpt lat="37.544185" lon="127.246912"/>
    <trkpt lat="37.544104" lon="127.247193"/>
    <trkpt lat="37.544022" lon="127.247474"/>
    <trkpt lat="37.543941" lon="127.247755"/>
    <trkpt lat="37.543859" lon="127.248035"/>
    <trkpt lat="37.543778" lon="127.248316"/>
    <trkpt lat="37.543696" lon="127.248597"/>
    <trkpt lat="37.543615" lon="127.248878"/>
    <trkpt lat="37.543533" lon="127.249158"/>
    <trkpt lat="37.543452" lon="127.249439"/>
    <trkpt lat="37.543370" lon="127.249720"/>
    <trkpt lat="37.543228" lon="127.249959"/>
    <trkpt lat="37.543086" lon="127.250198"/>
    <trkpt lat="37.542945" lon="127.250437"/>
    <trkpt lat="37.542803" lon="127.250676"/>
    <trkpt lat="37.542661" lon="127.250915"/>
    <trkpt lat="37.542519" lon="127.251155"/>
    <trkpt lat="37.542377" lon="127.251394"/>
    <trkpt lat="37.542235" lon="127.251633"/>
    <trkpt lat="37.542094" lon="127.251872"/>
    <trkpt lat="37.541952" lon="127.252111"/>
    <trkpt lat="37.541810" lon="127.252350"/>
    <trkpt lat="37.541680" lon="127.252585"/>
    <trkpt lat="37.541550" lon="127.252820"/>
    <trkpt lat="37.541420" lon="127.253055"/>
    <trkpt lat="37.541290" lon="127.253290"/>
    <trkpt lat="37.541160" lon="127.253525"/>
    <trkpt lat="37.541030" lon="127.253760"/>
    <trkpt lat="37.540900" lon="127.253995"/>
    <trkpt lat="37.540770" lon="127.254230"/>
    <trkpt lat="37.540760" lon="127.254640"/>
    <trkpt lat="37.540730" lon="127.254965"/>
    <trkpt lat="37.540700" lon="127.255290"/>
    <trkpt lat="37.540860" lon="127.255550"/>
    <trkpt lat="37.540870" lon="127.255870"/>
    <trkpt lat="37.540689" lon="127.256084"/>
    <trkpt lat="37.540507" lon="127.256298"/>
    <trkpt lat="37.540326" lon="127.256511"/>
    <trkpt lat="37.540145" lon="127.256725"/>
    <trkpt lat="37.539964" lon="127.256939"/>
    <trkpt lat="37.539783" lon="127.257153"/>
    <trkpt lat="37.539601" lon="127.257366"/>
    <trkpt lat="37.539420" lon="127.257580"/>
    <trkpt lat="37.539248" lon="127.257783"/>
    <trkpt lat="37.539075" lon="127.257985"/>
    <trkpt lat="37.538902" lon="127.258188"/>
    <trkpt lat="37.538730" lon="127.258390"/>
    <trkpt lat="37.538560" lon="127.258580"/>
    <trkpt lat="37.538390" lon="127.258770"/>
    <trkpt lat="37.538220" lon="127.258960"/>
    <trkpt lat="37.538050" lon="127.259150"/>
    <trkpt lat="37.537880" lon="127.259340"/>
    <trkpt lat="37.537710" lon="127.259530"/>
    <trkpt lat="37.537470" lon="127.259790"/>
    <trkpt lat="37.537230" lon="127.260050"/>
    <trkpt lat="37.537075" lon="127.260288"/>
    <trkpt lat="37.536920" lon="127.260527"/>
    <trkpt lat="37.536765" lon="127.260765"/>
    <trkpt lat="37.536610" lon="127.261003"/>
    <trkpt lat="37.536455" lon="127.261242"/>
    <trkpt lat="37.536300" lon="127.261480"/>
    <trkpt lat="37.536162" lon="127.261730"/>
    <trkpt lat="37.536025" lon="127.261980"/>
    <trkpt lat="37.535888" lon="127.262230"/>
    <trkpt lat="37.535750" lon="127.262480"/>
    <trkpt lat="37.535640" lon="127.262728"/>
    <trkpt lat="37.535530" lon="127.262976"/>
    <trkpt lat="37.535420" lon="127.263224"/>
    <trkpt lat="37.535310" lon="127.263472"/>
    <trkpt lat="37.535200" lon="127.263720"/>
    <trkpt lat="37.535030" lon="127.264075"/>
    <trkpt lat="37.534860" lon="127.264430"/>
    <trkpt lat="37.534695" lon="127.264695"/>
    <trkpt lat="37.534530" lon="127.264960"/>
    <trkpt lat="37.534382" lon="127.265232"/>
    <trkpt lat="37.534235" lon="127.265505"/>
    <trkpt lat="37.534087" lon="127.265778"/>
    <trkpt lat="37.533940" lon="127.266050"/>
    <trkpt lat="37.533830" lon="127.266405"/>
    <trkpt lat="37.533720" lon="127.266760"/>
    <trkpt lat="37.533642" lon="127.267040"/>
    <trkpt lat="37.533563" lon="127.267320"/>
    <trkpt lat="37.533485" lon="127.267600"/>
    <trkpt lat="37.533407" lon="127.267880"/>
    <trkpt lat="37.533328" lon="127.268160"/>
    <trkpt lat="37.533250" lon="127.268440"/>
    <trkpt lat="37.533122" lon="127.268685"/>
    <trkpt lat="37.532993" lon="127.268930"/>
    <trkpt lat="37.532865" lon="127.269175"/>
    <trkpt lat="37.532737" lon="127.269420"/>
    <trkpt lat="37.532608" lon="127.269665"/>
    <trkpt lat="37.532480" lon="127.269910"/>
    <trkpt lat="37.532353" lon="127.270163"/>
    <trkpt lat="37.532227" lon="127.270417"/>
    <trkpt lat="37.532100" lon="127.270670"/>
    <trkpt lat="37.532002" lon="127.270956"/>
    <trkpt lat="37.531904" lon="127.271242"/>
    <trkpt lat="37.531806" lon="127.271528"/>
    <trkpt lat="37.531708" lon="127.271814"/>
    <trkpt lat="37.531610" lon="127.272100"/>
    <trkpt lat="37.531505" lon="127.272375"/>
    <trkpt lat="37.531400" lon="127.272650"/>
    <trkpt lat="37.531295" lon="127.272925"/>
    <trkpt lat="37.531190" lon="127.273200"/>
    <trkpt lat="37.531078" lon="127.273448"/>
    <trkpt lat="37.530966" lon="127.273696"/>
    <trkpt lat="37.530854" lon="127.273944"/>
    <trkpt lat="37.530742" lon="127.274192"/>
    <trkpt lat="37.530630" lon="127.274440"/>
    <trkpt lat="37.530522" lon="127.274720"/>
    <trkpt lat="37.530413" lon="127.275000"/>
    <trkpt lat="37.530305" lon="127.275280"/>
    <trkpt lat="37.530197" lon="127.275560"/>
    <trkpt lat="37.530088" lon="127.275840"/>
    <trkpt lat="37.529980" lon="127.276120"/>
    <trkpt lat="37.529880" lon="127.276403"/>
    <trkpt lat="37.529780" lon="127.276686"/>
    <trkpt lat="37.529680" lon="127.276969"/>
    <trkpt lat="37.529580" lon="127.277251"/>
    <trkpt lat="37.529480" lon="127.277534"/>
    <trkpt lat="37.529380" lon="127.277817"/>
    <trkpt lat="37.529280" lon="127.278100"/>
    <trkpt lat="37.529150" lon="127.278600"/>
    <trkpt lat="37.529090" lon="127.279140"/>
    <trkpt lat="37.529085" lon="127.279430"/>
    <trkpt lat="37.529080" lon="127.279720"/>
    <trkpt lat="37.529075" lon="127.280010"/>
    <trkpt lat="37.529070" lon="127.280300"/>
    <trkpt lat="37.529062" lon="127.280593"/>
    <trkpt lat="37.529054" lon="127.280886"/>
    <trkpt lat="37.529046" lon="127.281179"/>
    <trkpt lat="37.529038" lon="127.281472"/>
    <trkpt lat="37.529030" lon="127.281765"/>
    <trkpt lat="37.529022" lon="127.282058"/>
    <trkpt lat="37.529014" lon="127.282351"/>
    <trkpt lat="37.529006" lon="127.282644"/>
    <trkpt lat="37.528998" lon="127.282937"/>
    <trkpt lat="37.528990" lon="127.283230"/>
    <trkpt lat="37.528930" lon="127.283530"/>
    <trkpt lat="37.528870" lon="127.283830"/>
    <trkpt lat="37.528720" lon="127.284175"/>
    <trkpt lat="37.528570" lon="127.284520"/>
    <trkpt lat="37.528360" lon="127.285000"/>
    <trkpt lat="37.528185" lon="127.285245"/>
    <trkpt lat="37.528010" lon="127.285490"/>
    <trkpt lat="37.527770" lon="127.285735"/>
    <trkpt lat="37.527530" lon="127.285980"/>
    <trkpt lat="37.527245" lon="127.286175"/>
    <trkpt lat="37.526960" lon="127.286370"/>
    <trkpt lat="37.526757" lon="127.286495"/>
    <trkpt lat="37.526553" lon="127.286620"/>
    <trkpt lat="37.526350" lon="127.286745"/>
    <trkpt lat="37.526147" lon="127.286870"/>
    <trkpt lat="37.525943" lon="127.286995"/>
    <trkpt lat="37.525740" lon="127.287120"/>
    <trkpt lat="37.525510" lon="127.287248"/>
    <trkpt lat="37.525280" lon="127.287377"/>
    <trkpt lat="37.525050" lon="127.287505"/>
    <trkpt lat="37.524820" lon="127.287633"/>
    <trkpt lat="37.524590" lon="127.287762"/>
    <trkpt lat="37.524360" lon="127.287890"/>
    <trkpt lat="37.524154" lon="127.288028"/>
    <trkpt lat="37.523948" lon="127.288166"/>
    <trkpt lat="37.523742" lon="127.288304"/>
    <trkpt lat="37.523536" lon="127.288442"/>
    <trkpt lat="37.523330" lon="127.288580"/>
    <trkpt lat="37.523150" lon="127.288773"/>
    <trkpt lat="37.522970" lon="127.288967"/>
    <trkpt lat="37.522790" lon="127.289160"/>
    <trkpt lat="37.522620" lon="127.289427"/>
    <trkpt lat="37.522450" lon="127.289693"/>
    <trkpt lat="37.522280" lon="127.289960"/>
    <trkpt lat="37.522177" lon="127.290257"/>
    <trkpt lat="37.522073" lon="127.290553"/>
    <trkpt lat="37.521970" lon="127.290850"/>
    <trkpt lat="37.521905" lon="127.291185"/>
    <trkpt lat="37.521840" lon="127.291520"/>
    <trkpt lat="37.521770" lon="127.292080"/>
    <trkpt lat="37.521780" lon="127.292640"/>
    <trkpt lat="37.521833" lon="127.292983"/>
    <trkpt lat="37.521887" lon="127.293327"/>
    <trkpt lat="37.521940" lon="127.293670"/>
    <trkpt lat="37.522050" lon="127.294013"/>
    <trkpt lat="37.522160" lon="127.294357"/>
    <trkpt lat="37.522270" lon="127.294700"/>
    <trkpt lat="37.522433" lon="127.294930"/>
    <trkpt lat="37.522595" lon="127.295160"/>
    <trkpt lat="37.522757" lon="127.295390"/>
    <trkpt lat="37.522920" lon="127.295620"/>
    <trkpt lat="37.523083" lon="127.295850"/>
    <trkpt lat="37.523245" lon="127.296080"/>
    <trkpt lat="37.523407" lon="127.296310"/>
    <trkpt lat="37.523570" lon="127.296540"/>
    <trkpt lat="37.523739" lon="127.296732"/>
    <trkpt lat="37.523908" lon="127.296924"/>
    <trkpt lat="37.524077" lon="127.297115"/>
    <trkpt lat="37.524246" lon="127.297307"/>
    <trkpt lat="37.524415" lon="127.297499"/>
    <trkpt lat="37.524585" lon="127.297691"/>
    <trkpt lat="37.524754" lon="127.297883"/>
    <trkpt lat="37.524923" lon="127.298075"/>
    <trkpt lat="37.525092" lon="127.298266"/>
    <trkpt lat="37.525261" lon="127.298458"/>
    <trkpt lat="37.525430" lon="127.298650"/>
    <trkpt lat="37.525662" lon="127.298756"/>
    <trkpt lat="37.525894" lon="127.298862"/>
    <trkpt lat="37.526126" lon="127.298968"/>
    <trkpt lat="37.526358" lon="127.299074"/>
    <trkpt lat="37.526590" lon="127.299180"/>
    <trkpt lat="37.526920" lon="127.299205"/>
    <trkpt lat="37.527250" lon="127.299230"/>
    <trkpt lat="37.527485" lon="127.299200"/>
    <trkpt lat="37.527720" lon="127.299170"/>
    <trkpt lat="37.527955" lon="127.299140"/>
    <trkpt lat="37.528190" lon="127.299110"/>
    <trkpt lat="37.528425" lon="127.299080"/>
    <trkpt lat="37.528660" lon="127.299050"/>
    <trkpt lat="37.528888" lon="127.299006"/>
    <trkpt lat="37.529116" lon="127.298962"/>
    <trkpt lat="37.529344" lon="127.298918"/>
    <trkpt lat="37.529572" lon="127.298874"/>
    <trkpt lat="37.529800" lon="127.298830"/>
    <trkpt lat="37.530037" lon="127.298810"/>
    <trkpt lat="37.530275" lon="127.298790"/>
    <trkpt lat="37.530513" lon="127.298770"/>
    <trkpt lat="37.530750" lon="127.298750"/>
    <trkpt lat="37.531025" lon="127.298775"/>
    <trkpt lat="37.531300" lon="127.298800"/>
    <trkpt lat="37.531615" lon="127.298915"/>
    <trkpt lat="37.531930" lon="127.299030"/>
    <trkpt lat="37.532170" lon="127.299165"/>
    <trkpt lat="37.532410" lon="127.299300"/>
    <trkpt lat="37.532622" lon="127.299453"/>
    <trkpt lat="37.532834" lon="127.299607"/>
    <trkpt lat="37.533047" lon="127.299760"/>
    <trkpt lat="37.533259" lon="127.299913"/>
    <trkpt lat="37.533471" lon="127.300067"/>
    <trkpt lat="37.533683" lon="127.300220"/>
    <trkpt lat="37.533896" lon="127.300373"/>
    <trkpt lat="37.534108" lon="127.300527"/>
    <trkpt lat="37.534320" lon="127.300680"/>
    <trkpt lat="37.534573" lon="127.300873"/>
    <trkpt lat="37.534827" lon="127.301067"/>
    <trkpt lat="37.535080" lon="127.301260"/>
    <trkpt lat="37.535320" lon="127.301390"/>
    <trkpt lat="37.535560" lon="127.301520"/>
    <trkpt lat="37.535800" lon="127.301650"/>
    <trkpt lat="37.536023" lon="127.301723"/>
    <trkpt lat="37.536247" lon="127.301797"/>
    <trkpt lat="37.536470" lon="127.301870"/>
    <trkpt lat="37.536730" lon="127.301862"/>
    <trkpt lat="37.536990" lon="127.301855"/>
    <trkpt lat="37.537250" lon="127.301847"/>
    <trkpt lat="37.537510" lon="127.301840"/>
    <trkpt lat="37.537732" lon="127.301777"/>
    <trkpt lat="37.537953" lon="127.301713"/>
    <trkpt lat="37.538175" lon="127.301650"/>
    <trkpt lat="37.538397" lon="127.301587"/>
    <trkpt lat="37.538618" lon="127.301523"/>
    <trkpt lat="37.538840" lon="127.301460"/>
    <trkpt lat="37.539103" lon="127.301430"/>
    <trkpt lat="37.539367" lon="127.301400"/>
    <trkpt lat="37.539630" lon="127.301370"/>
    <trkpt lat="37.539880" lon="127.301400"/>
    <trkpt lat="37.540130" lon="127.301430"/>
    <trkpt lat="37.540362" lon="127.301510"/>
    <trkpt lat="37.540594" lon="127.301590"/>
    <trkpt lat="37.540826" lon="127.301670"/>
    <trkpt lat="37.541058" lon="127.301750"/>
    <trkpt lat="37.541290" lon="127.301830"/>
    <trkpt lat="37.541544" lon="127.301932"/>
    <trkpt lat="37.541798" lon="127.302034"/>
    <trkpt lat="37.542052" lon="127.302136"/>
    <trkpt lat="37.542306" lon="127.302238"/>
    <trkpt lat="37.542560" lon="127.302340"/>
    <trkpt lat="37.542833" lon="127.302387"/>
    <trkpt lat="37.543107" lon="127.302433"/>
    <trkpt lat="37.543380" lon="127.302480"/>
    <trkpt lat="37.543630" lon="127.302580"/>
    <trkpt lat="37.543880" lon="127.302680"/>
    <trkpt lat="37.544130" lon="127.302780"/>
    <trkpt lat="37.544380" lon="127.302880"/>
    <trkpt lat="37.544597" lon="127.303013"/>
    <trkpt lat="37.544813" lon="127.303147"/>
    <trkpt lat="37.545030" lon="127.303280"/>
    <trkpt lat="37.545250" lon="127.303397"/>
    <trkpt lat="37.545470" lon="127.303513"/>
    <trkpt lat="37.545690" lon="127.303630"/>
    <trkpt lat="37.545875" lon="127.303793"/>
    <trkpt lat="37.546060" lon="127.303955"/>
    <trkpt lat="37.546245" lon="127.304118"/>
    <trkpt lat="37.546430" lon="127.304280"/>
    <trkpt lat="37.546615" lon="127.304442"/>
    <trkpt lat="37.546800" lon="127.304605"/>
    <trkpt lat="37.546985" lon="127.304767"/>
    <trkpt lat="37.547170" lon="127.304930"/>
    <trkpt lat="37.547383" lon="127.305111"/>
    <trkpt lat="37.547596" lon="127.305293"/>
    <trkpt lat="37.547809" lon="127.305474"/>
    <trkpt lat="37.548021" lon="127.305656"/>
    <trkpt lat="37.548234" lon="127.305837"/>
    <trkpt lat="37.548447" lon="127.306019"/>
    <trkpt lat="37.548660" lon="127.306200"/>
    <trkpt lat="37.548855" lon="127.306363"/>
    <trkpt lat="37.549050" lon="127.306527"/>
    <trkpt lat="37.549245" lon="127.306690"/>
    <trkpt lat="37.549440" lon="127.306853"/>
    <trkpt lat="37.549635" lon="127.307017"/>
    <trkpt lat="37.549830" lon="127.307180"/>
    <trkpt lat="37.550026" lon="127.307361"/>
    <trkpt lat="37.550223" lon="127.307542"/>
    <trkpt lat="37.550419" lon="127.307724"/>
    <trkpt lat="37.550615" lon="127.307905"/>
    <trkpt lat="37.550811" lon="127.308086"/>
    <trkpt lat="37.551007" lon="127.308267"/>
    <trkpt lat="37.551204" lon="127.308449"/>
    <trkpt lat="37.551400" lon="127.308630"/>
    <trkpt lat="37.551545" lon="127.308865"/>
    <trkpt lat="37.551690" lon="127.309100"/>
    <trkpt lat="37.551835" lon="127.309335"/>
    <trkpt lat="37.551980" lon="127.309570"/>
    <trkpt lat="37.552107" lon="127.309887"/>
    <trkpt lat="37.552233" lon="127.310203"/>
    <trkpt lat="37.552360" lon="127.310520"/>
    <trkpt lat="37.552410" lon="127.310820"/>
    <trkpt lat="37.552460" lon="127.311120"/>
    <trkpt lat="37.552510" lon="127.311550"/>
    <trkpt lat="37.552498" lon="127.311835"/>
    <trkpt lat="37.552485" lon="127.312120"/>
    <trkpt lat="37.552473" lon="127.312405"/>
    <trkpt lat="37.552460" lon="127.312690"/>
    <trkpt lat="37.552378" lon="127.312955"/>
    <trkpt lat="37.552297" lon="127.313220"/>
    <trkpt lat="37.552215" lon="127.313485"/>
    <trkpt lat="37.552133" lon="127.313750"/>
    <trkpt lat="37.552052" lon="127.314015"/>
    <trkpt lat="37.551970" lon="127.314280"/>
    <trkpt lat="37.551866" lon="127.314560"/>
    <trkpt lat="37.551761" lon="127.314840"/>
    <trkpt lat="37.551657" lon="127.315120"/>
    <trkpt lat="37.551553" lon="127.315400"/>
    <trkpt lat="37.551449" lon="127.315680"/>
    <trkpt lat="37.551344" lon="127.315960"/>
    <trkpt lat="37.551240" lon="127.316240"/>
    <trkpt lat="37.551344" lon="127.315960"/>
    <trkpt lat="37.551449" lon="127.315680"/>
    <trkpt lat="37.551553" lon="127.315400"/>
    <trkpt lat="37.551657" lon="127.315120"/>
    <trkpt lat="37.551761" lon="127.314840"/>
    <trkpt lat="37.551866" lon="127.314560"/>
    <trkpt lat="37.551970" lon="127.314280"/>
    <trkpt lat="37.552052" lon="127.314015"/>
    <trkpt lat="37.552133" lon="127.313750"/>
    <trkpt lat="37.552215" lon="127.313485"/>
    <trkpt lat="37.552297" lon="127.313220"/>
    <trkpt lat="37.552378" lon="127.312955"/>
    <trkpt lat="37.552460" lon="127.312690"/>
    <trkpt lat="37.552473" lon="127.312405"/>
    <trkpt lat="37.552485" lon="127.312120"/>
    <trkpt lat="37.552498" lon="127.311835"/>
    <trkpt lat="37.552510" lon="127.311550"/>
    <trkpt lat="37.552460" lon="127.311120"/>
    <trkpt lat="37.552410" lon="127.310820"/>
    <trkpt lat="37.552360" lon="127.310520"/>
    <trkpt lat="37.552233" lon="127.310203"/>
    <trkpt lat="37.552107" lon="127.309887"/>
    <trkpt lat="37.551980" lon="127.309570"/>
    <trkpt lat="37.551835" lon="127.309335"/>
    <trkpt lat="37.551690" lon="127.309100"/>
    <trkpt lat="37.551545" lon="127.308865"/>
    <trkpt lat="37.551400" lon="127.308630"/>
    <trkpt lat="37.551204" lon="127.308449"/>
    <trkpt lat="37.551007" lon="127.308267"/>
    <trkpt lat="37.550811" lon="127.308086"/>
    <trkpt lat="37.550615" lon="127.307905"/>
    <trkpt lat="37.550419" lon="127.307724"/>
    <trkpt lat="37.550223" lon="127.307542"/>
    <trkpt lat="37.550026" lon="127.307361"/>
    <trkpt lat="37.549830" lon="127.307180"/>
    <trkpt lat="37.549635" lon="127.307017"/>
    <trkpt lat="37.549440" lon="127.306853"/>
    <trkpt lat="37.549245" lon="127.306690"/>
    <trkpt lat="37.549050" lon="127.306527"/>
    <trkpt lat="37.548855" lon="127.306363"/>
    <trkpt lat="37.548660" lon="127.306200"/>
    <trkpt lat="37.548447" lon="127.306019"/>
    <trkpt lat="37.548234" lon="127.305837"/>
    <trkpt lat="37.548021" lon="127.305656"/>
    <trkpt lat="37.547809" lon="127.305474"/>
    <trkpt lat="37.547596" lon="127.305293"/>
    <trkpt lat="37.547383" lon="127.305111"/>
    <trkpt lat="37.547170" lon="127.304930"/>
    <trkpt lat="37.546985" lon="127.304767"/>
    <trkpt lat="37.546800" lon="127.304605"/>
    <trkpt lat="37.546615" lon="127.304442"/>
    <trkpt lat="37.546430" lon="127.304280"/>
    <trkpt lat="37.546245" lon="127.304118"/>
    <trkpt lat="37.546060" lon="127.303955"/>
    <trkpt lat="37.545875" lon="127.303793"/>
    <trkpt lat="37.545690" lon="127.303630"/>
    <trkpt lat="37.545470" lon="127.303513"/>
    <trkpt lat="37.545250" lon="127.303397"/>
    <trkpt lat="37.545030" lon="127.303280"/>
    <trkpt lat="37.544813" lon="127.303147"/>
    <trkpt lat="37.544597" lon="127.303013"/>
    <trkpt lat="37.544380" lon="127.302880"/>
    <trkpt lat="37.544130" lon="127.302780"/>
    <trkpt lat="37.543880" lon="127.302680"/>
    <trkpt lat="37.543630" lon="127.302580"/>
    <trkpt lat="37.543380" lon="127.302480"/>
    <trkpt lat="37.543107" lon="127.302433"/>
    <trkpt lat="37.542833" lon="127.302387"/>
    <trkpt lat="37.542560" lon="127.302340"/>
    <trkpt lat="37.542306" lon="127.302238"/>
    <trkpt lat="37.542052" lon="127.302136"/>
    <trkpt lat="37.541798" lon="127.302034"/>
    <trkpt lat="37.541544" lon="127.301932"/>
    <trkpt lat="37.541290" lon="127.301830"/>
    <trkpt lat="37.541058" lon="127.301750"/>
    <trkpt lat="37.540826" lon="127.301670"/>
    <trkpt lat="37.540594" lon="127.301590"/>
    <trkpt lat="37.540362" lon="127.301510"/>
    <trkpt lat="37.540130" lon="127.301430"/>
    <trkpt lat="37.539880" lon="127.301400"/>
    <trkpt lat="37.539630" lon="127.301370"/>
    <trkpt lat="37.539367" lon="127.301400"/>
    <trkpt lat="37.539103" lon="127.301430"/>
    <trkpt lat="37.538840" lon="127.301460"/>
    <trkpt lat="37.538618" lon="127.301523"/>
    <trkpt lat="37.538397" lon="127.301587"/>
    <trkpt lat="37.538175" lon="127.301650"/>
    <trkpt lat="37.537953" lon="127.301713"/>
    <trkpt lat="37.537732" lon="127.301777"/>
    <trkpt lat="37.537510" lon="127.301840"/>
    <trkpt lat="37.537250" lon="127.301847"/>
    <trkpt lat="37.536990" lon="127.301855"/>
    <trkpt lat="37.536730" lon="127.301862"/>
    <trkpt lat="37.536470" lon="127.301870"/>
    <trkpt lat="37.536247" lon="127.301797"/>
    <trkpt lat="37.536023" lon="127.301723"/>
    <trkpt lat="37.535800" lon="127.301650"/>
    <trkpt lat="37.535560" lon="127.301520"/>
    <trkpt lat="37.535320" lon="127.301390"/>
    <trkpt lat="37.535080" lon="127.301260"/>
    <trkpt lat="37.534827" lon="127.301067"/>
    <trkpt lat="37.534573" lon="127.300873"/>
    <trkpt lat="37.534320" lon="127.300680"/>
    <trkpt lat="37.534108" lon="127.300527"/>
    <trkpt lat="37.533896" lon="127.300373"/>
    <trkpt lat="37.533683" lon="127.300220"/>
    <trkpt lat="37.533471" lon="127.300067"/>
    <trkpt lat="37.533259" lon="127.299913"/>
    <trkpt lat="37.533047" lon="127.299760"/>
    <trkpt lat="37.532834" lon="127.299607"/>
    <trkpt lat="37.532622" lon="127.299453"/>
    <trkpt lat="37.532410" lon="127.299300"/>
    <trkpt lat="37.532170" lon="127.299165"/>
    <trkpt lat="37.531930" lon="127.299030"/>
    <trkpt lat="37.531615" lon="127.298915"/>
    <trkpt lat="37.531300" lon="127.298800"/>
    <trkpt lat="37.531025" lon="127.298775"/>
    <trkpt lat="37.530750" lon="127.298750"/>
    <trkpt lat="37.530513" lon="127.298770"/>
    <trkpt lat="37.530275" lon="127.298790"/>
    <trkpt lat="37.530037" lon="127.298810"/>
    <trkpt lat="37.529800" lon="127.298830"/>
    <trkpt lat="37.529572" lon="127.298874"/>
    <trkpt lat="37.529344" lon="127.298918"/>
    <trkpt lat="37.529116" lon="127.298962"/>
    <trkpt lat="37.528888" lon="127.299006"/>
    <trkpt lat="37.528660" lon="127.299050"/>
    <trkpt lat="37.528425" lon="127.299080"/>
    <trkpt lat="37.528190" lon="127.299110"/>
    <trkpt lat="37.527955" lon="127.299140"/>
    <trkpt lat="37.527720" lon="127.299170"/>
    <trkpt lat="37.527485" lon="127.299200"/>
    <trkpt lat="37.527250" lon="127.299230"/>
    <trkpt lat="37.526920" lon="127.299205"/>
    <trkpt lat="37.526590" lon="127.299180"/>
    <trkpt lat="37.526358" lon="127.299074"/>
    <trkpt lat="37.526126" lon="127.298968"/>
    <trkpt lat="37.525894" lon="127.298862"/>
    <trkpt lat="37.525662" lon="127.298756"/>
    <trkpt lat="37.525430" lon="127.298650"/>
    <trkpt lat="37.525261" lon="127.298458"/>
    <trkpt lat="37.525092" lon="127.298266"/>
    <trkpt lat="37.524923" lon="127.298075"/>
    <trkpt lat="37.524754" lon="127.297883"/>
    <trkpt lat="37.524585" lon="127.297691"/>
    <trkpt lat="37.524415" lon="127.297499"/>
    <trkpt lat="37.524246" lon="127.297307"/>
    <trkpt lat="37.524077" lon="127.297115"/>
    <trkpt lat="37.523908" lon="127.296924"/>
    <trkpt lat="37.523739" lon="127.296732"/>
    <trkpt lat="37.523570" lon="127.296540"/>
    <trkpt lat="37.523407" lon="127.296310"/>
    <trkpt lat="37.523245" lon="127.296080"/>
    <trkpt lat="37.523083" lon="127.295850"/>
    <trkpt lat="37.522920" lon="127.295620"/>
    <trkpt lat="37.522757" lon="127.295390"/>
    <trkpt lat="37.522595" lon="127.295160"/>
    <trkpt lat="37.522433" lon="127.294930"/>
    <trkpt lat="37.522270" lon="127.294700"/>
    <trkpt lat="37.522160" lon="127.294357"/>
    <trkpt lat="37.522050" lon="127.294013"/>
    <trkpt lat="37.521940" lon="127.293670"/>
    <trkpt lat="37.521887" lon="127.293327"/>
    <trkpt lat="37.521833" lon="127.292983"/>
    <trkpt lat="37.521780" lon="127.292640"/>
    <trkpt lat="37.521770" lon="127.292080"/>
    <trkpt lat="37.521840" lon="127.291520"/>
    <trkpt lat="37.521905" lon="127.291185"/>
    <trkpt lat="37.521970" lon="127.290850"/>
    <trkpt lat="37.522073" lon="127.290553"/>
    <trkpt lat="37.522177" lon="127.290257"/>
    <trkpt lat="37.522280" lon="127.289960"/>
    <trkpt lat="37.522450" lon="127.289693"/>
    <trkpt lat="37.522620" lon="127.289427"/>
    <trkpt lat="37.522790" lon="127.289160"/>
    <trkpt lat="37.522970" lon="127.288967"/>
    <trkpt lat="37.523150" lon="127.288773"/>
    <trkpt lat="37.523330" lon="127.288580"/>
    <trkpt lat="37.523536" lon="127.288442"/>
    <trkpt lat="37.523742" lon="127.288304"/>
    <trkpt lat="37.523948" lon="127.288166"/>
    <trkpt lat="37.524154" lon="127.288028"/>
    <trkpt lat="37.524360" lon="127.287890"/>
    <trkpt lat="37.524590" lon="127.287762"/>
    <trkpt lat="37.524820" lon="127.287633"/>
    <trkpt lat="37.525050" lon="127.287505"/>
    <trkpt lat="37.525280" lon="127.287377"/>
    <trkpt lat="37.525510" lon="127.287248"/>
    <trkpt lat="37.525740" lon="127.287120"/>
    <trkpt lat="37.525943" lon="127.286995"/>
    <trkpt lat="37.526147" lon="127.286870"/>
    <trkpt lat="37.526350" lon="127.286745"/>
    <trkpt lat="37.526553" lon="127.286620"/>
    <trkpt lat="37.526757" lon="127.286495"/>
    <trkpt lat="37.526960" lon="127.286370"/>
    <trkpt lat="37.527245" lon="127.286175"/>
    <trkpt lat="37.527530" lon="127.285980"/>
    <trkpt lat="37.527770" lon="127.285735"/>
    <trkpt lat="37.528010" lon="127.285490"/>
    <trkpt lat="37.528185" lon="127.285245"/>
    <trkpt lat="37.528360" lon="127.285000"/>
    <trkpt lat="37.528570" lon="127.284520"/>
    <trkpt lat="37.528720" lon="127.284175"/>
    <trkpt lat="37.528870" lon="127.283830"/>
    <trkpt lat="37.528930" lon="127.283530"/>
    <trkpt lat="37.528990" lon="127.283230"/>
    <trkpt lat="37.528998" lon="127.282937"/>
    <trkpt lat="37.529006" lon="127.282644"/>
    <trkpt lat="37.529014" lon="127.282351"/>
    <trkpt lat="37.529022" lon="127.282058"/>
    <trkpt lat="37.529030" lon="127.281765"/>
    <trkpt lat="37.529038" lon="127.281472"/>
    <trkpt lat="37.529046" lon="127.281179"/>
    <trkpt lat="37.529054" lon="127.280886"/>
    <trkpt lat="37.529062" lon="127.280593"/>
    <trkpt lat="37.529070" lon="127.280300"/>
    <trkpt lat="37.529075" lon="127.280010"/>
    <trkpt lat="37.529080" lon="127.279720"/>
    <trkpt lat="37.529085" lon="127.279430"/>
    <trkpt lat="37.529090" lon="127.279140"/>
    <trkpt lat="37.529150" lon="127.278600"/>
    <trkpt lat="37.529280" lon="127.278100"/>
    <trkpt lat="37.529380" lon="127.277817"/>
    <trkpt lat="37.529480" lon="127.277534"/>
    <trkpt lat="37.529580" lon="127.277251"/>
    <trkpt lat="37.529680" lon="127.276969"/>
    <trkpt lat="37.529780" lon="127.276686"/>
    <trkpt lat="37.529880" lon="127.276403"/>
    <trkpt lat="37.529980" lon="127.276120"/>
    <trkpt lat="37.530088" lon="127.275840"/>
    <trkpt lat="37.530197" lon="127.275560"/>
    <trkpt lat="37.530305" lon="127.275280"/>
    <trkpt lat="37.530413" lon="127.275000"/>
    <trkpt lat="37.530522" lon="127.274720"/>
    <trkpt lat="37.530630" lon="127.274440"/>
    <trkpt lat="37.530742" lon="127.274192"/>
    <trkpt lat="37.530854" lon="127.273944"/>
    <trkpt lat="37.530966" lon="127.273696"/>
    <trkpt lat="37.531078" lon="127.273448"/>
    <trkpt lat="37.531190" lon="127.273200"/>
    <trkpt lat="37.531295" lon="127.272925"/>
    <trkpt lat="37.531400" lon="127.272650"/>
    <trkpt lat="37.531505" lon="127.272375"/>
    <trkpt lat="37.531610" lon="127.272100"/>
    <trkpt lat="37.531708" lon="127.271814"/>
    <trkpt lat="37.531806" lon="127.271528"/>
    <trkpt lat="37.531904" lon="127.271242"/>
    <trkpt lat="37.532002" lon="127.270956"/>
    <trkpt lat="37.532100" lon="127.270670"/>
    <trkpt lat="37.532227" lon="127.270417"/>
    <trkpt lat="37.532353" lon="127.270163"/>
    <trkpt lat="37.532480" lon="127.269910"/>
    <trkpt lat="37.532608" lon="127.269665"/>
    <trkpt lat="37.532737" lon="127.269420"/>
    <trkpt lat="37.532865" lon="127.269175"/>
    <trkpt lat="37.532993" lon="127.268930"/>
    <trkpt lat="37.533122" lon="127.268685"/>
    <trkpt lat="37.533250" lon="127.268440"/>
    <trkpt lat="37.533328" lon="127.268160"/>
    <trkpt lat="37.533407" lon="127.267880"/>
    <trkpt lat="37.533485" lon="127.267600"/>
    <trkpt lat="37.533563" lon="127.267320"/>
    <trkpt lat="37.533642" lon="127.267040"/>
    <trkpt lat="37.533720" lon="127.266760"/>
    <trkpt lat="37.533830" lon="127.266405"/>
    <trkpt lat="37.533940" lon="127.266050"/>
    <trkpt lat="37.534087" lon="127.265778"/>
    <trkpt lat="37.534235" lon="127.265505"/>
    <trkpt lat="37.534382" lon="127.265232"/>
    <trkpt lat="37.534530" lon="127.264960"/>
    <trkpt lat="37.534695" lon="127.264695"/>
    <trkpt lat="37.534860" lon="127.264430"/>
    <trkpt lat="37.535030" lon="127.264075"/>
    <trkpt lat="37.535200" lon="127.263720"/>
    <trkpt lat="37.535310" lon="127.263472"/>
    <trkpt lat="37.535420" lon="127.263224"/>
    <trkpt lat="37.535530" lon="127.262976"/>
    <trkpt lat="37.535640" lon="127.262728"/>
    <trkpt lat="37.535750" lon="127.262480"/>
    <trkpt lat="37.535888" lon="127.262230"/>
    <trkpt lat="37.536025" lon="127.261980"/>
    <trkpt lat="37.536162" lon="127.261730"/>
    <trkpt lat="37.536300" lon="127.261480"/>
    <trkpt lat="37.536455" lon="127.261242"/>
    <trkpt lat="37.536610" lon="127.261003"/>
    <trkpt lat="37.536765" lon="127.260765"/>
    <trkpt lat="37.536920" lon="127.260527"/>
    <trkpt lat="37.537075" lon="127.260288"/>
    <trkpt lat="37.537230" lon="127.260050"/>
    <trkpt lat="37.537470" lon="127.259790"/>
    <trkpt lat="37.537710" lon="127.259530"/>
    <trkpt lat="37.537880" lon="127.259340"/>
    <trkpt lat="37.538050" lon="127.259150"/>
    <trkpt lat="37.538220" lon="127.258960"/>
    <trkpt lat="37.538390" lon="127.258770"/>
    <trkpt lat="37.538560" lon="127.258580"/>
    <trkpt lat="37.538730" lon="127.258390"/>
    <trkpt lat="37.538902" lon="127.258188"/>
    <trkpt lat="37.539075" lon="127.257985"/>
    <trkpt lat="37.539248" lon="127.257783"/>
    <trkpt lat="37.539420" lon="127.257580"/>
    <trkpt lat="37.539601" lon="127.257366"/>
    <trkpt lat="37.539783" lon="127.257153"/>
    <trkpt lat="37.539964" lon="127.256939"/>
    <trkpt lat="37.540145" lon="127.256725"/>
    <trkpt lat="37.540326" lon="127.256511"/>
    <trkpt lat="37.540507" lon="127.256298"/>
    <trkpt lat="37.540689" lon="127.256084"/>
    <trkpt lat="37.540870" lon="127.255870"/>
    <trkpt lat="37.540860" lon="127.255550"/>
    <trkpt lat="37.540700" lon="127.255290"/>
    <trkpt lat="37.540730" lon="127.254965"/>
    <trkpt lat="37.540760" lon="127.254640"/>
    <trkpt lat="37.540770" lon="127.254230"/>
    <trkpt lat="37.540900" lon="127.253995"/>
    <trkpt lat="37.541030" lon="127.253760"/>
    <trkpt lat="37.541160" lon="127.253525"/>
    <trkpt lat="37.541290" lon="127.253290"/>
    <trkpt lat="37.541420" lon="127.253055"/>
    <trkpt lat="37.541550" lon="127.252820"/>
    <trkpt lat="37.541680" lon="127.252585"/>
    <trkpt lat="37.541810" lon="127.252350"/>
    <trkpt lat="37.541952" lon="127.252111"/>
    <trkpt lat="37.542094" lon="127.251872"/>
    <trkpt lat="37.542235" lon="127.251633"/>
    <trkpt lat="37.542377" lon="127.251394"/>
    <trkpt lat="37.542519" lon="127.251155"/>
    <trkpt lat="37.542661" lon="127.250915"/>
    <trkpt lat="37.542803" lon="127.250676"/>
    <trkpt lat="37.542945" lon="127.250437"/>
    <trkpt lat="37.543086" lon="127.250198"/>
    <trkpt lat="37.543228" lon="127.249959"/>
    <trkpt lat="37.543370" lon="127.249720"/>
    <trkpt lat="37.543452" lon="127.249439"/>
    <trkpt lat="37.543533" lon="127.249158"/>
    <trkpt lat="37.543615" lon="127.248878"/>
    <trkpt lat="37.543696" lon="127.248597"/>
    <trkpt lat="37.543778" lon="127.248316"/>
    <trkpt lat="37.543859" lon="127.248035"/>
    <trkpt lat="37.543941" lon="127.247755"/>
    <trkpt lat="37.544022" lon="127.247474"/>
    <trkpt lat="37.544104" lon="127.247193"/>
    <trkpt lat="37.544185" lon="127.246912"/>
    <trkpt lat="37.544267" lon="127.246632"/>
    <trkpt lat="37.544348" lon="127.246351"/>
    <trkpt lat="37.544430" lon="127.246070"/>
    <trkpt lat="37.544567" lon="127.245800"/>
    <trkpt lat="37.544703" lon="127.245530"/>
    <trkpt lat="37.544840" lon="127.245260"/>
    <trkpt lat="37.544945" lon="127.245565"/>
    <trkpt lat="37.545050" lon="127.245870"/>
    <trkpt lat="37.545080" lon="127.246350"/>
    <trkpt lat="37.545230" lon="127.246470"/>
    <trkpt lat="37.545320" lon="127.246140"/>
    <trkpt lat="37.545480" lon="127.245825"/>
    <trkpt lat="37.545640" lon="127.245510"/>
    <trkpt lat="37.545695" lon="127.245233"/>
    <trkpt lat="37.545750" lon="127.244955"/>
    <trkpt lat="37.545805" lon="127.244677"/>
    <trkpt lat="37.545860" lon="127.244400"/>
    <trkpt lat="37.546013" lon="127.244110"/>
    <trkpt lat="37.546167" lon="127.243820"/>
    <trkpt lat="37.546320" lon="127.243530"/>
    <trkpt lat="37.546440" lon="127.243287"/>
    <trkpt lat="37.546560" lon="127.243043"/>
    <trkpt lat="37.546680" lon="127.242800"/>
    <trkpt lat="37.546867" lon="127.242597"/>
    <trkpt lat="37.547053" lon="127.242393"/>
    <trkpt lat="37.547240" lon="127.242190"/>
    <trkpt lat="37.547455" lon="127.242290"/>
    <trkpt lat="37.547670" lon="127.242390"/>
    <trkpt lat="37.547880" lon="127.242800"/>
    <trkpt lat="37.547753" lon="127.243130"/>
    <trkpt lat="37.547627" lon="127.243460"/>
    <trkpt lat="37.547500" lon="127.243790"/>
  </trkseg></trk>
</gpx>
